GLOBALSTAR M023         
1 25621U 99004A   24317.85177131 -.00000022  00000+0  45277-3 0  9990
2 25621  52.0125 352.1826 0010003  11.2360 159.7267 12.62482626188404
GLOBALSTAR M040         
1 25622U 99004B   24317.95678402 -.00000042  00000+0  34795-3 0  9994
2 25622  51.9937 355.6933 0000490 273.5349 151.8595 12.61990209188250
GLOBALSTAR M036         
1 25623U 99004C   24318.38809587 -.00000065  00000+0  26227-3 0  9999
2 25623  51.9960  89.1104 0010589   3.3856  30.1990 11.86580522153347
GLOBALSTAR M038         
1 25624U 99004D   24318.48419097 -.00000043  00000+0  43296-3 0  9995
2 25624  51.9991 332.7662 0001774 331.4509 193.6897 12.32513529175737
GLOBALSTAR M022         
1 25649U 99012A   24318.31373486 -.00000001  00000+0  10300-2 0  9997
2 25649  52.0005 157.7413 0003488  96.9030  74.4443 12.02491356150485
GLOBALSTAR M041         
1 25650U 99012B   24318.46697914 -.00000053  00000+0  41339-3 0  9994
2 25650  52.0048  32.1978 0001990 247.0254 113.0372 11.96661034152701
GLOBALSTAR M046         
1 25651U 99012C   24318.46353067 -.00000147  00000+0 -64793-3 0  9997
2 25651  52.0031 115.3401 0002685 157.1355 236.9122 12.09401439157916
GLOBALSTAR M037         
1 25652U 99012D   24318.50297877 -.00000027  00000+0  42591-3 0  9997
2 25652  51.9979 120.8933 0002928  81.1130 313.8073 12.62425503184089
